NORAD_CAT_ID,OBJECT_NAME,OBJECT_TYPE,EPOCH,MEAN_MOTION,ECCENTRICITY,INCLINATION,RA_OF_ASC_NODE,ARG_OF_PERICENTER,MEAN_ANOMALY,BSTAR,MEAN_MOTION_DOT,MEAN_MOTION_DDOT,TLE_LINE0,TLE_LINE1,TLE_LINE2,SEMIMAJOR_AXIS,PERIOD,APOGEE,PERIGEE,DECAYED
55310.0,STARLINK-5309,PAYLOAD,2023-04-05 10:41:38,15.69886735,0.0003221,70.0002,215.4691,258.3592,101.7242,-5.5166e-05,-6.83e-05,0.0,0 STARLINK-5309,1 55310U 23010AT  23095.44558478 -.00006830  00000-0 -55166-4 0  9990,2 55310  70.0002 215.4691 0003221 258.3592 101.7242 15.69886735 12429,6737.358,91.726,361.393,357.053,0.0
55310.0,STARLINK-5309,PAYLOAD,2023-04-05 16:48:37,15.69928521,0.0003012,70.0011,214.7511,258.0348,102.051,4.4793e-05,5.177e-05,0.0,0 STARLINK-5309,1 55310U 23010AT  23095.70043338  .00005177  00000-0  44793-4 0  9998,2 55310  70.0011 214.7511 0003012 258.0348 102.0510 15.69928521 12462,6737.238,91.724,361.133,357.074,0.0
55310.0,STARLINK-5309,PAYLOAD,2023-04-06 11:09:38,15.69923848,0.0003134,70.0004,212.6026,267.7543,92.3294,1.6586e-05,1.782e-05,0.0,0 STARLINK-5309,1 55310U 23010AT  23096.46502846  .00001782  00000-0  16586-4 0  9993,2 55310  70.0004 212.6026 0003134 267.7543  92.3294 15.69923848 12907,6737.252,91.724,361.228,357.005,0.0
55310.0,STARLINK-5309,PAYLOAD,2023-04-07 00:55:24,15.69917924,0.0003286,70.0004,210.991,270.5023,89.5796,6.0883e-05,7.112e-05,0.0,0 STARLINK-5309,1 55310U 23010AT  23097.03848323  .00007112  00000-0  60883-4 0  9992,2 55310  70.0004 210.9910 0003286 270.5023  89.5796 15.69917924 12670,6737.269,91.725,361.348,356.92,0.0
55310.0,STARLINK-5309,PAYLOAD,2023-04-07 10:05:55,15.69924936,0.0003071,70.0013,209.9173,268.3285,91.7559,3.9606e-05,4.552e-05,0.0,0 STARLINK-5309,1 55310U 23010AT  23097.42078077  .00004552  00000-0  39606-4 0  9990,2 55310  70.0013 209.9173 0003071 268.3285  91.7559 15.69924936 13052,6737.249,91.724,361.183,357.045,0.0
55310.0,STARLINK-5309,PAYLOAD,2023-04-08 10:33:56,15.69916261,0.0002895,70.0016,207.0513,263.044,97.0426,-2.8405e-05,-3.625e-05,0.0,0 STARLINK-5309,1 55310U 23010AT  23098.44023798 -.00003625  00000-0 -28405-4 0  9990,2 55310  70.0016 207.0513 0002895 263.0440  97.0426 15.69916261 12895,6737.274,91.725,361.089,357.188,0.0
55310.0,STARLINK-5309,PAYLOAD,2023-04-09 09:30:13,15.69916841,0.0003268,70.0011,204.3647,266.5956,93.4866,-3.8092e-06,-6.7e-06,0.0,0 STARLINK-5309,1 55310U 23010AT  23099.39599363 -.00000670  00000-0 -38092-5 0  9992,2 55310  70.0011 204.3647 0003268 266.5956  93.4866 15.69916841 13368,6737.272,91.725,361.339,356.935,0.0
55310.0,STARLINK-5309,PAYLOAD,2023-04-09 17:08:59,15.69926476,0.0002902,70.001,203.4687,264.8492,95.2373,3.0117e-05,3.41e-05,0.0,0 STARLINK-5309,1 55310U 23010AT  23099.71457570  .00003410  00000-0  30117-4 0  9993,2 55310  70.0010 203.4687 0002902 264.8492  95.2373 15.69926476 13415,6737.244,91.724,361.064,357.154,0.0
55310.0,STARLINK-5309,PAYLOAD,2023-04-10 08:26:30,15.69922883,0.0003058,70.0006,201.6768,258.1917,101.8936,3.9163e-05,4.498e-05,0.0,0 STARLINK-5309,1 55310U 23010AT  23100.35174643  .00004498  00000-0  39163-4 0  9990,2 55310  70.0006 201.6768 0003058 258.1917 101.8936 15.69922883 13519,6737.255,91.724,361.18,357.059,0.0
55310.0,STARLINK-5309,PAYLOAD,2023-04-11 08:54:33,15.69915016,0.0002964,70.0021,198.8132,258.6735,101.4128,-2.6237e-06,-5.28e-06,0.0,0 STARLINK-5309,1 55310U 23010AT  23101.37121963 -.00000528  00000-0 -26237-5 0  9991,2 55310  70.0021 198.8132 0002964 258.6735 101.4128 15.69915016 13357,6737.277,91.725,361.139,357.145,0.0
55310.0,STARLINK-5309,PAYLOAD,2023-04-11 10:26:18,15.69910516,0.0003302,69.9995,198.6318,265.2396,94.8423,-5.7706e-06,-9.06e-06,0.0,0 STARLINK-5309,1 55310U 23010AT  23101.43493799 -.00000906  00000-0 -57706-5 0  9992,2 55310  69.9995 198.6318 0003302 265.2396  94.8423 15.69910516 13681,6737.29,91.725,361.38,356.93,0.0
55310.0,STARLINK-5309,PAYLOAD,2023-04-12 09:22:35,15.69915631,0.0003136,70.0011,195.9462,253.8348,106.2502,-8.1418e-06,-1.191e-05,0.0,0 STARLINK-5309,1 55310U 23010AT  23102.39068472 -.00001191  00000-0 -81418-5 0  9998,2 55310  70.0011 195.9462 0003136 253.8348 106.2502 15.69915631 13519,6737.275,91.725,361.253,357.028,0.0
55310.0,STARLINK-5309,PAYLOAD,2023-04-12 12:26:05,15.69925777,0.0003331,69.9995,195.5871,257.9518,102.1305,1.4298e-05,1.507e-05,0.0,0 STARLINK-5309,1 55310U 23010AT  23102.51811479  .00001507  00000-0  14298-4 0  9995,2 55310  69.9995 195.5871 0003331 257.9518 102.1305 15.69925777 13853,6737.246,91.724,361.356,356.867,0.0
55310.0,STARLINK-5309,PAYLOAD,2023-04-13 09:50:36,15.69927592,0.0003221,69.9999,193.0787,259.321,100.7623,3.0891e-05,3.504e-05,0.0,0 STARLINK-5309,1 55310U 23010AT  23103.41014898  .00003504  00000-0  30891-4 0  9991,2 55310  69.9999 193.0787 0003221 259.3210 100.7623 15.69927592 13998,6737.241,91.724,361.276,356.936,0.0
55310.0,STARLINK-5309,PAYLOAD,2023-04-13 17:29:22,15.69921316,0.0003083,70.0003,192.1834,264.3285,95.7559,5.5888e-06,4.59e-06,0.0,0 STARLINK-5309,1 55310U 23010AT  23103.72873459  .00000459  00000-0  55888-5 0  9991,2 55310  70.0003 192.1834 0003083 264.3285  95.7559 15.69921316 13724,6737.259,91.724,361.201,357.047,0.0
55310.0,STARLINK-5309,PAYLOAD,2023-04-14 08:46:53,15.69927969,0.0003171,69.9999,190.3916,257.7145,102.3696,3.1662e-05,3.597e-05,0.0,0 STARLINK-5309,1 55310U 23010AT  23104.36589707  .00003597  00000-0  31662-4 0  9991,2 55310  69.9999 190.3916 0003171 257.7145 102.3696 15.69927969 13823,6737.24,91.724,361.241,356.969,0.0
55310.0,STARLINK-5309,PAYLOAD,2023-04-14 22:32:39,15.69923662,0.000298,70.0001,188.7793,265.2103,94.8753,6.5341e-06,5.73e-06,0.0,0 STARLINK-5309,1 55310U 23010AT  23104.93935052  .00000573  00000-0  65341-5 0  9995,2 55310  70.0001 188.7793 0002980 265.2103  94.8753 15.69923662 13914,6737.252,91.724,361.125,357.11,0.0
55310.0,STARLINK-5309,PAYLOAD,2023-04-15 13:50:11,15.69923724,0.0002691,70.0004,186.9879,263.9575,96.1314,7.1767e-07,-1.26e-06,0.0,0 STARLINK-5309,1 55310U 23010AT  23105.57651936 -.00000126  00000-0  71767-6 0  9997,2 55310  70.0004 186.9879 0002691 263.9575  96.1314 15.69923724 14333,6737.252,91.724,360.93,357.304,0.0
55310.0,STARLINK-5309,PAYLOAD,2023-04-15 18:25:25,15.69934924,0.0003292,69.9982,186.4503,259.792,100.2905,1.3452e-05,1.406e-05,0.0,0 STARLINK-5309,1 55310U 23010AT  23105.76766078  .00001406  00000-0  13452-4 0  9998,2 55310  69.9982 186.4503 0003292 259.7920 100.2905 15.69934924 14369,6737.22,91.724,361.303,356.867,0.0
55310.0,STARLINK-5309,PAYLOAD,2023-04-16 08:11:12,15.69923904,0.0003405,69.9975,184.8385,267.8421,92.2385,2.1041e-06,4e-07,0.0,0 STARLINK-5309,1 55310U 23010AT  23106.34112030  .00000040  00000-0  21041-5 0  9993,2 55310  69.9975 184.8385 0003405 267.8421  92.2385 15.69923904 14136,6737.252,91.724,361.411,356.823,0.0
55310.0,STARLINK-5309,PAYLOAD,2023-04-16 12:46:28,15.69922767,0.0003644,69.9976,184.3009,270.4309,89.6469,2.2797e-06,6.1e-07,0.0,0 STARLINK-5309,1 55310U 23010AT  23106.53227122  .00000061  00000-0  22797-5 0  9995,2 55310  69.9976 184.3009 0003644 270.4309  89.6469 15.69922767 14482,6737.255,91.724,361.575,356.665,0.0
55310.0,STARLINK-5309,PAYLOAD,2023-04-16 17:21:43,15.6992358,0.0003568,69.9976,183.7636,267.9133,92.1654,8.4192e-06,8e-06,0.0,0 STARLINK-5309,1 55310U 23010AT  23106.72341960  .00000800  00000-0  84192-5 0  9991,2 55310  69.9976 183.7636 0003568 267.9133  92.1654 15.69923580 14515,6737.253,91.724,361.521,356.714,0.0
55310.0,STARLINK-5309,PAYLOAD,2023-04-17 08:39:14,15.69921133,0.0003588,69.9973,181.9733,267.7726,92.3059,1.8308e-05,1.989e-05,0.0,0 STARLINK-5309,1 55310U 23010AT  23107.36058807  .00001989  00000-0  18308-4 0  9991,2 55310  69.9973 181.9733 0003588 267.7726  92.3059 15.69921133 14296,6737.26,91.724,361.542,356.707,0.0
55310.0,STARLINK-5309,PAYLOAD,2023-04-17 13:14:29,15.69949589,0.0003247,69.9972,181.4353,262.3812,97.7015,-2.8597e-05,-3.653e-05,0.0,0 STARLINK-5309,1 55310U 23010AT  23107.55172763 -.00003653  00000-0 -28597-4 0  9993,2 55310  69.9972 181.4353 0003247 262.3812  97.7015 15.69949589 14642,6737.178,91.723,361.231,356.856,0.0
55310.0,STARLINK-5309,PAYLOAD,2023-04-17 16:18:00,15.6991931,0.0003481,69.9976,181.0761,269.5719,90.5077,1.3849e-05,1.452e-05,0.0,0 STARLINK-5309,1 55310U 23010AT  23107.67917424  .00001452  00000-0  13849-4 0  9994,2 55310  69.9976 181.0761 0003481 269.5719  90.5077 15.69919310 14660,6737.265,91.724,361.475,356.785,0.0
55310.0,STARLINK-5309,PAYLOAD,2023-04-18 07:35:31,15.69925715,0.0003326,69.9975,179.2845,265.5707,94.5108,1.3931e-05,1.463e-05,0.0,0 STARLINK-5309,1 55310U 23010AT  23108.31633676  .00001463  00000-0  13931-4 0  9994,2 55310  69.9975 179.2845 0003326 265.5707  94.5108 15.69925715 14768,6737.247,91.724,361.352,356.871,0.0
55310.0,STARLINK-5309,PAYLOAD,2023-04-18 16:46:02,15.69916638,0.0003369,69.9989,178.2117,266.9724,93.1086,1.4055e-05,1.477e-05,0.0,0 STARLINK-5309,1 55310U 23010AT  23108.69864412  .00001477  00000-0  14055-4 0  9992,2 55310  69.9989 178.2117 0003369 266.9724  93.1086 15.69916638 14501,6737.272,91.725,361.407,356.868,0.0
55310.0,STARLINK-5309,PAYLOAD,2023-04-19 06:31:47,15.69948173,0.0003564,69.9973,176.5985,263.0955,96.9835,-2.1983e-05,-2.858e-05,0.0,0 STARLINK-5309,1 55310U 23010AT  23109.27208169 -.00002858  00000-0 -21983-4 0  9992,2 55310  69.9973 176.5985 0003564 263.0955  96.9835 15.69948173 14590,6737.182,91.723,361.448,356.646,0.0
55310.0,STARLINK-5309,PAYLOAD,2023-04-19 08:03:33,15.69928991,0.0003539,69.9969,176.4177,267.0115,93.0676,1.5705e-05,1.676e-05,0.0,0 STARLINK-5309,1 55310U 23010AT  23109.33580083  .00001676  00000-0  15705-4 0  9997,2 55310  69.9969 176.4177 0003539 267.0115  93.0676 15.69928991 14925,6737.237,91.724,361.486,356.718,0.0
55310.0,STARLINK-5309,PAYLOAD,2023-04-19 14:09:46,15.70525018,0.0003719,69.9982,175.7007,252.56,107.5189,0.00064962,0.00080645,0.0,0 STARLINK-5309,1 55310U 23010AT  23109.59012127  .00080645  00000-0  64962-3 0  9995,2 55310  69.9982 175.7007 0003719 252.5600 107.5189 15.70525018 14646,6735.532,91.689,359.902,354.893,0.0
